[{"CCSDS_OMM_VERS":"2.0","COMMENT":"GENERATED VIA SPACE-TRACK.ORG API","CREATION_DATE":"2018-10-03T15:52:18","ORIGINATOR":"18 SPCS","OBJECT_NAME":"TBA - TO BE ASSIGNED","OBJECT_ID":"2000-000","CENTER_NAME":"EARTH","REF_FRAME":"TEME","TIME_SYSTEM":"UTC","MEAN_ELEMENT_THEORY":"SGP4","EPOCH":"2018-10-03T09:57:17.548416","MEAN_MOTION":"11.42135269","ECCENTRICITY":"0.19276470","INCLINATION":"64.5931","RA_OF_ASC_NODE":"335.2661","ARG_OF_PERICENTER":"34.9554","MEAN_ANOMALY":"336.3894","EPHEMERIS_TYPE":"0","CLASSIFICATION_TYPE":"U","NORAD_CAT_ID":"87200","ELEMENT_SET_NO":"999","REV_AT_EPOCH":"12358","BSTAR":"0.00246860000000","MEAN_MOTION_DOT":"0.00029948","MEAN_MOTION_DDOT":"0.0000000000000","SEMIMAJOR_AXIS":"8328.947","PERIOD":"126.079","APOAPSIS":"3556.340","PERIAPSIS":"345.285","OBJECT_TYPE":"TBA","RCS_SIZE":null,"COUNTRY_CODE":null,"LAUNCH_DATE":null,"SITE":null,"DECAY_DATE":null,"FILE":"2339734","GP_ID":"123594561","TLE_LINE0":"0 TBA - TO BE ASSIGNED","TLE_LINE1":"1 87200U          18276.41478644 +.00029948 +00000-0 +24686-2 0  9999","TLE_LINE2":"2 87200 064.5931 335.2661 1927647 034.9554 336.3894 11.42135269123588"},{"CCSDS_OMM_VERS":"2.0","COMMENT":"GENERATED VIA SPACE-TRACK.ORG API","CREATION_DATE":"2021-06-02T17:20:51","ORIGINATOR":"18 SPCS","OBJECT_NAME":"TBA - TO BE ASSIGNED","OBJECT_ID":"","CENTER_NAME":"EARTH","REF_FRAME":"TEME","TIME_SYSTEM":"UTC","MEAN_ELEMENT_THEORY":"SGP4","EPOCH":"2021-06-02T10:36:04.185504","MEAN_MOTION":"13.84198805","ECCENTRICITY":"0.00266360","INCLINATION":"65.9154","RA_OF_ASC_NODE":"202.2684","ARG_OF_PERICENTER":"348.2832","MEAN_ANOMALY":"11.7613","EPHEMERIS_TYPE":"0","CLASSIFICATION_TYPE":"U","NORAD_CAT_ID":"87180","ELEMENT_SET_NO":"999","REV_AT_EPOCH":"37978","BSTAR":"0.00062130000000","MEAN_MOTION_DOT":"0.00000614","MEAN_MOTION_DDOT":"0.0000000000000","SEMIMAJOR_AXIS":"7327.169","PERIOD":"104.031","APOAPSIS":"968.550","PERIAPSIS":"929.517","OBJECT_TYPE":"TBA","RCS_SIZE":null,"COUNTRY_CODE":null,"LAUNCH_DATE":null,"SITE":null,"DECAY_DATE":null,"FILE":"3047860","GP_ID":"178341006","TLE_LINE0":"0 TBA - TO BE ASSIGNED","TLE_LINE1":"1 87180U          21153.44171511 +.00000614 +00000+0 +62130-3 0  9995","TLE_LINE2":"2 87180  65.9154 202.2684 0026636 348.2832  11.7613 13.84198805379783"},{"CCSDS_OMM_VERS":"2.0","COMMENT":"GENERATED VIA SPACE-TRACK.ORG API","CREATION_DATE":"2021-10-02T19:12:03","ORIGINATOR":"18 SPCS","OBJECT_NAME":"TBA - TO BE ASSIGNED","OBJECT_ID":"","CENTER_NAME":"EARTH","REF_FRAME":"TEME","TIME_SYSTEM":"UTC","MEAN_ELEMENT_THEORY":"SGP4","EPOCH":"2021-10-02T13:20:55.154688","MEAN_MOTION":"14.40914890","ECCENTRICITY":"0.01501110","INCLINATION":"65.2078","RA_OF_ASC_NODE":"20.3964","ARG_OF_PERICENTER":"328.7057","MEAN_ANOMALY":"30.5162","EPHEMERIS_TYPE":"0","CLASSIFICATION_TYPE":"U","NORAD_CAT_ID":"87164","ELEMENT_SET_NO":"999","REV_AT_EPOCH":"41401","BSTAR":"0.00028654000000","MEAN_MOTION_DOT":"0.00000939","MEAN_MOTION_DDOT":"0.0000000000000","SEMIMAJOR_AXIS":"7133.614","PERIOD":"99.937","APOAPSIS":"862.563","PERIAPSIS":"648.396","OBJECT_TYPE":"TBA","RCS_SIZE":null,"COUNTRY_CODE":null,"LAUNCH_DATE":null,"SITE":null,"DECAY_DATE":null,"FILE":"3140729","GP_ID":"185993623","TLE_LINE0":"0 TBA - TO BE ASSIGNED","TLE_LINE1":"1 87164U          21275.55619392 +.00000939 +00000+0 +28654-3 0  9991","TLE_LINE2":"2 87164  65.2078  20.3964 0150111 328.7057  30.5162 14.40914890414018"},{"CCSDS_OMM_VERS":"2.0","COMMENT":"GENERATED VIA SPACE-TRACK.ORG API","CREATION_DATE":"2021-10-02T19:12:03","ORIGINATOR":"18 SPCS","OBJECT_NAME":"TBA - TO BE ASSIGNED","OBJECT_ID":"1976-126","CENTER_NAME":"EARTH","REF_FRAME":"TEME","TIME_SYSTEM":"UTC","MEAN_ELEMENT_THEORY":"SGP4","EPOCH":"2021-10-02T12:36:27.973728","MEAN_MOTION":"13.50511054","ECCENTRICITY":"0.07046270","INCLINATION":"65.6048","RA_OF_ASC_NODE":"8.3905","ARG_OF_PERICENTER":"11.6114","MEAN_ANOMALY":"350.0268","EPHEMERIS_TYPE":"0","CLASSIFICATION_TYPE":"U","NORAD_CAT_ID":"87163","ELEMENT_SET_NO":"999","REV_AT_EPOCH":"36978","BSTAR":"0.00013068000000","MEAN_MOTION_DOT":"0.00000313","MEAN_MOTION_DDOT":"0.0000000000000","SEMIMAJOR_AXIS":"7448.516","PERIOD":"106.626","APOAPSIS":"1595.223","PERIAPSIS":"545.538","OBJECT_TYPE":"TBA","RCS_SIZE":null,"COUNTRY_CODE":null,"LAUNCH_DATE":null,"SITE":null,"DECAY_DATE":null,"FILE":"3140729","GP_ID":"185993342","TLE_LINE0":"0 TBA - TO BE ASSIGNED","TLE_LINE1":"1 87163U 76126    21275.52532377 +.00000313 +00000+0 +13068-3 0  9995","TLE_LINE2":"2 87163  65.6048   8.3905 0704627  11.6114 350.0268 13.50511054369783"},{"CCSDS_OMM_VERS":"2.0","COMMENT":"GENERATED VIA SPACE-TRACK.ORG API","CREATION_DATE":"2021-10-02T19:12:03","ORIGINATOR":"18 SPCS","OBJECT_NAME":"TBA - TO BE ASSIGNED","OBJECT_ID":"","CENTER_NAME":"EARTH","REF_FRAME":"TEME","TIME_SYSTEM":"UTC","MEAN_ELEMENT_THEORY":"SGP4","EPOCH":"2021-10-02T12:58:12.670752","MEAN_MOTION":"13.61047005","ECCENTRICITY":"0.01218560","INCLINATION":"90.3081","RA_OF_ASC_NODE":"18.0199","ARG_OF_PERICENTER":"106.2436","MEAN_ANOMALY":"255.2167","EPHEMERIS_TYPE":"0","CLASSIFICATION_TYPE":"U","NORAD_CAT_ID":"87159","ELEMENT_SET_NO":"999","REV_AT_EPOCH":"34795","BSTAR":"0.00037272000000","MEAN_MOTION_DOT":"0.00000307","MEAN_MOTION_DDOT":"0.0000000000000","SEMIMAJOR_AXIS":"7410.026","PERIOD":"105.801","APOAPSIS":"1122.187","PERIAPSIS":"941.596","OBJECT_TYPE":"TBA","RCS_SIZE":null,"COUNTRY_CODE":null,"LAUNCH_DATE":null,"SITE":null,"DECAY_DATE":null,"FILE":"3140729","GP_ID":"185993376","TLE_LINE0":"0 TBA - TO BE ASSIGNED","TLE_LINE1":"1 87159U          21275.54042443 +.00000307 +00000+0 +37272-3 0  9996","TLE_LINE2":"2 87159  90.3081  18.0199 0121856 106.2436 255.2167 13.61047005347959"},{"CCSDS_OMM_VERS":"2.0","COMMENT":"GENERATED VIA SPACE-TRACK.ORG API","CREATION_DATE":"2021-04-07T17:48:42","ORIGINATOR":"18 SPCS","OBJECT_NAME":"TBA - TO BE ASSIGNED","OBJECT_ID":"","CENTER_NAME":"EARTH","REF_FRAME":"TEME","TIME_SYSTEM":"UTC","MEAN_ELEMENT_THEORY":"SGP4","EPOCH":"2021-04-07T00:10:25.128192","MEAN_MOTION":"8.35510061","ECCENTRICITY":"0.32660570","INCLINATION":"62.9335","RA_OF_ASC_NODE":"221.8942","ARG_OF_PERICENTER":"236.3373","MEAN_ANOMALY":"88.2733","EPHEMERIS_TYPE":"0","CLASSIFICATION_TYPE":"U","NORAD_CAT_ID":"87149","ELEMENT_SET_NO":"999","REV_AT_EPOCH":"22400","BSTAR":"0.00079725000000","MEAN_MOTION_DOT":"0.00000810","MEAN_MOTION_DDOT":"0.0000000000000","SEMIMAJOR_AXIS":"10258.898","PERIOD":"172.350","APOAPSIS":"7231.378","PERIAPSIS":"530.149","OBJECT_TYPE":"TBA","RCS_SIZE":null,"COUNTRY_CODE":null,"LAUNCH_DATE":null,"SITE":null,"DECAY_DATE":null,"FILE":"3010538","GP_ID":"175060647","TLE_LINE0":"0 TBA - TO BE ASSIGNED","TLE_LINE1":"1 87149U          21097.00723528 +.00000810 +00000+0 +79725-3 0  9996","TLE_LINE2":"2 87149  62.9335 221.8942 3266057 236.3373  88.2733  8.35510061224001"},{"CCSDS_OMM_VERS":"2.0","COMMENT":"GENERATED VIA SPACE-TRACK.ORG API","CREATION_DATE":"2021-04-02T18:09:44","ORIGINATOR":"18 SPCS","OBJECT_NAME":"TBA - TO BE ASSIGNED","OBJECT_ID":"","CENTER_NAME":"EARTH","REF_FRAME":"TEME","TIME_SYSTEM":"UTC","MEAN_ELEMENT_THEORY":"SGP4","EPOCH":"2021-04-01T06:50:57.739200","MEAN_MOTION":"6.73878593","ECCENTRICITY":"0.36897090","INCLINATION":"26.1633","RA_OF_ASC_NODE":"94.7205","ARG_OF_PERICENTER":"237.8509","MEAN_ANOMALY":"81.0609","EPHEMERIS_TYPE":"0","CLASSIFICATION_TYPE":"U","NORAD_CAT_ID":"87143","ELEMENT_SET_NO":"999","REV_AT_EPOCH":"18138","BSTAR":"0.00000000000000","MEAN_MOTION_DOT":"0.00000035","MEAN_MOTION_DDOT":"0.0000000000000","SEMIMAJOR_AXIS":"11839.883","PERIOD":"213.688","APOAPSIS":"9830.320","PERIAPSIS":"1093.176","OBJECT_TYPE":"TBA","RCS_SIZE":null,"COUNTRY_CODE":null,"LAUNCH_DATE":null,"SITE":null,"DECAY_DATE":null,"FILE":"3004615","GP_ID":"174703623","TLE_LINE0":"0 TBA - TO BE ASSIGNED","TLE_LINE1":"1 87143U          21091.28539050 +.00000035 +00000+0 +00000+0 0  9994","TLE_LINE2":"2 87143  26.1633  94.7205 3689709 237.8509  81.0609  6.73878593181380"},{"CCSDS_OMM_VERS":"2.0","COMMENT":"GENERATED VIA SPACE-TRACK.ORG API","CREATION_DATE":"2021-06-02T17:20:51","ORIGINATOR":"18 SPCS","OBJECT_NAME":"TBA - TO BE ASSIGNED","OBJECT_ID":"","CENTER_NAME":"EARTH","REF_FRAME":"TEME","TIME_SYSTEM":"UTC","MEAN_ELEMENT_THEORY":"SGP4","EPOCH":"2021-06-01T14:24:27.824256","MEAN_MOTION":"13.09673069","ECCENTRICITY":"0.04756230","INCLINATION":"66.6716","RA_OF_ASC_NODE":"120.1173","ARG_OF_PERICENTER":"278.9681","MEAN_ANOMALY":"75.7824","EPHEMERIS_TYPE":"0","CLASSIFICATION_TYPE":"U","NORAD_CAT_ID":"87134","ELEMENT_SET_NO":"999","REV_AT_EPOCH":"35952","BSTAR":"0.00078192000000","MEAN_MOTION_DOT":"0.00000408","MEAN_MOTION_DDOT":"0.0000000000000","SEMIMAJOR_AXIS":"7602.561","PERIOD":"109.951","APOAPSIS":"1586.021","PERIAPSIS":"862.831","OBJECT_TYPE":"TBA","RCS_SIZE":null,"COUNTRY_CODE":null,"LAUNCH_DATE":null,"SITE":null,"DECAY_DATE":null,"FILE":"3047860","GP_ID":"178341020","TLE_LINE0":"0 TBA - TO BE ASSIGNED","TLE_LINE1":"1 87134U          21152.60032204 +.00000408 +00000+0 +78192-3 0  9992","TLE_LINE2":"2 87134  66.6716 120.1173 0475623 278.9681  75.7824 13.09673069359521"}]